API VERSION: 1.2
API SOURCE: NASA/JPL Horizons API



*******************************************************************************
Ephemeris / API_USER Sat Jul 11 19:36:34 2026 Pasadena, USA      / Horizons    
*******************************************************************************
Target body name: 2060 Chiron (1977 UB)           {source: JPL#171}
Center body name: Earth (399)                     {source: DE441}
Center-site name: GEOCENTRIC
*******************************************************************************
Start time      : A.D. 1915-Jan-01 00:00:00.0000 UT      
Stop  time      : A.D. 1920-Jan-01 00:00:00.0000 UT      
Step-size       : 2880 minutes
*******************************************************************************
Target pole/equ : undefined
Target radii    : 83. km                                                       
Center geodetic : 0.0, 0.0, -6378.137             {E-lon(deg),Lat(deg),Alt(km)}
Center cylindric: 0.0, 0.0, 0.0                   {E-lon(deg),Dxy(km),Dz(km)}
Center pole/equ : ITRF93                          {East-longitude positive}
Center radii    : 6378.137, 6378.137, 6356.752 km {Equator_a, b, pole_c}       
Target primary  : Sun
Vis. interferer : MOON (R_eq= 1737.400) km        {source: DE441}
Rel. light bend : Sun                             {source: DE441}
Rel. lght bnd GM: 1.3271E+11 km^3/s^2                                          
Small-body perts: Yes                             {source: SB441-N16}
Atmos refraction: NO (AIRLESS)
RA format       : DEG
Time format     : CAL 
Calendar mode   : Mixed Julian/Gregorian
EOP file        : eop.260710.p261006                                           
EOP coverage    : DATA-BASED 1962-JAN-20 TO 2026-JUL-10. PREDICTS-> 2026-OCT-05
Units conversion: 1 au= 149597870.700 km, c= 299792.458 km/s, 1 day= 86400.0 s 
Table cut-offs 1: Elevation (-90.0deg=NO ),Airmass (>38.000=NO), Daylight (NO )
Table cut-offs 2: Solar elongation (  0.0,180.0=NO ),Local Hour Angle( 0.0=NO )
Table cut-offs 3: RA/DEC angular rate (     0.0=NO )                           
*******************************************************************************
Initial IAU76/J2000 heliocentric ecliptic osculating elements (au, days, deg.):
  EPOCH=  2457916.5 ! 2017-Jun-12.00 (TDB)         Residual RMS= .19933        
   EC= .3824171374703196   QR= 8.427522999110739   TP= 2450143.7110841358      
   OM= 209.2011323125998   W=  339.6529896907077   IN= 6.94959060447848        
  Equivalent ICRF heliocentric cartesian coordinates (au, au/d):
   X= 1.843374627977423E+01  Y=-1.877818593473934E+00  Z= 5.548833989583914E-01
  VX= 7.316266023833624E-04 VY= 2.960187278972600E-03 VZ= 9.710586201315230E-04
Asteroid physical parameters (km, seconds, rotational period in hours):        
   GM= n.a.                RAD= 83.                ROTPER= 5.918               
   H= 5.54                 G= .150                 B-V= .704                   
                           ALBEDO= .150            STYP= Cb                    
*******************************************************************************
 Date__(UT)__HR:MN        ObsEcLon    ObsEcLat
**********************************************
$$SOE
 1916-Jul-30 00:00     355.9466982   4.1191208
 1916-Aug-01 00:00     355.8941487   4.1228670
 1916-Aug-03 00:00     355.8386740   4.1264397
 1916-Aug-05 00:00     355.7803935   4.1298310
 1916-Aug-07 00:00     355.7194442   4.1330333
 1916-Aug-09 00:00     355.6559488   4.1360390
 1916-Aug-11 00:00     355.5899793   4.1388407
 1916-Aug-13 00:00     355.5215610   4.1414307
 1916-Aug-15 00:00     355.4507496   4.1438016
 1916-Aug-17 00:00     355.3776836   4.1459457
 1916-Aug-19 00:00     355.3025244   4.1478558
 1916-Aug-21 00:00     355.2253970   4.1495252
 1916-Aug-23 00:00     355.1463967   4.1509476
 1916-Aug-25 00:00     355.0656118   4.1521174
 1916-Aug-27 00:00     354.9831412   4.1530293
 1916-Aug-29 00:00     354.8991074   4.1536785
 1916-Aug-31 00:00     354.8136655   4.1540611
 1916-Sep-02 00:00     354.7269979   4.1541731
 1916-Sep-04 00:00     354.6392901   4.1540115
 1916-Sep-06 00:00     354.5506949   4.1535733
 1916-Sep-08 00:00     354.4613131   4.1528559
 1916-Sep-10 00:00     354.3712225   4.1518569
 1916-Sep-12 00:00     354.2805457   4.1505739
 1916-Sep-14 00:00     354.1894720   4.1490051
 1916-Sep-16 00:00     354.0981936   4.1471490
 1916-Sep-18 00:00     354.0068572   4.1450051
 1916-Sep-20 00:00     353.9155808   4.1425732
 1916-Sep-22 00:00     353.8244812   4.1398540
 1916-Sep-24 00:00     353.7336887   4.1368489
 1916-Sep-26 00:00     353.6433567   4.1335597
 1916-Sep-28 00:00     353.5536681   4.1299890
 1916-Sep-30 00:00     353.4648245   4.1261398
 1916-Oct-02 00:00     353.3770122   4.1220158
 1916-Oct-04 00:00     353.2903657   4.1176207
 1916-Oct-06 00:00     353.2049729   4.1129586
 1916-Oct-08 00:00     353.1209238   4.1080338
 1916-Oct-10 00:00     353.0383607   4.1028509
 1916-Oct-12 00:00     352.9574674   4.0974146
 1916-Oct-14 00:00     352.8784105   4.0917304
 1916-Oct-16 00:00     352.8013076   4.0858042
 1916-Oct-18 00:00     352.7262500   4.0796425
 1916-Oct-20 00:00     352.6533317   4.0732523
 1916-Oct-22 00:00     352.5826619   4.0666413
 1916-Oct-24 00:00     352.5143714   4.0598174
 1916-Oct-26 00:00     352.4486146   4.0527888
 1916-Oct-28 00:00     352.3855554   4.0455643
 1916-Oct-30 00:00     352.3253234   4.0381526
 1916-Nov-01 00:00     352.2679825   4.0305627
 1916-Nov-03 00:00     352.2135622   4.0228032
 1916-Nov-05 00:00     352.1621214   4.0148831
 1916-Nov-07 00:00     352.1137694   4.0068110
 1916-Nov-09 00:00     352.0686308   3.9985960
 1916-Nov-11 00:00     352.0267971   3.9902472
 1916-Nov-13 00:00     351.9883144   3.9817741
 1916-Nov-15 00:00     351.9532082   3.9731866
 1916-Nov-17 00:00     351.9215108   3.9644947
 1916-Nov-19 00:00     351.8932725   3.9557083
 1916-Nov-21 00:00     351.8685638   3.9468378
 1916-Nov-23 00:00     351.8474738   3.9378933
 1916-Nov-25 00:00     351.8300914   3.9288851
 1916-Nov-27 00:00     351.8164589   3.9198232
 1916-Nov-29 00:00     351.8065455   3.9107174
 1916-Dec-01 00:00     351.8003057   3.9015769
 1916-Dec-03 00:00     351.7977478   3.8924110
 1916-Dec-05 00:00     351.7989237   3.8832286
 1916-Dec-07 00:00     351.8038755   3.8740386
 1916-Dec-09 00:00     351.8126049   3.8648499
 1916-Dec-11 00:00     351.8250771   3.8556717
 1916-Dec-13 00:00     351.8412460   3.8465129
 1916-Dec-15 00:00     351.8610778   3.8373825
 1916-Dec-17 00:00     351.8845598   3.8282893
 1916-Dec-19 00:00     351.9116993   3.8192420
 1916-Dec-21 00:00     351.9425169   3.8102492
 1916-Dec-23 00:00     351.9770244   3.8013191
 1916-Dec-25 00:00     352.0151808   3.7924596
 1916-Dec-27 00:00     352.0568752   3.7836782
 1916-Dec-29 00:00     352.1020028   3.7749817
 1916-Dec-31 00:00     352.1505316   3.7663766
 1917-Jan-02 00:00     352.2024605   3.7578695
 1917-Jan-04 00:00     352.2577587   3.7494666
 1917-Jan-06 00:00     352.3163544   3.7411743
 1917-Jan-08 00:00     352.3781519   3.7329986
 1917-Jan-10 00:00     352.4430547   3.7249459
 1917-Jan-12 00:00     352.5109839   3.7170220
 1917-Jan-14 00:00     352.5818845   3.7092327
 1917-Jan-16 00:00     352.6557209   3.7015836
 1917-Jan-18 00:00     352.7324641   3.6940800
 1917-Jan-20 00:00     352.8120676   3.6867270
 1917-Jan-22 00:00     352.8944309   3.6795290
 1917-Jan-24 00:00     352.9793973   3.6724902
 1917-Jan-26 00:00     353.0668350   3.6656143
 1917-Jan-28 00:00     353.1566925   3.6589045
 1917-Jan-30 00:00     353.2489342   3.6523642
 1917-Feb-01 00:00     353.3434797   3.6459965
 1917-Feb-03 00:00     353.4402121   3.6398046
 1917-Feb-05 00:00     353.5390038   3.6337918
 1917-Feb-07 00:00     353.6397360   3.6279610
 1917-Feb-09 00:00     353.7423123   3.6223152
 1917-Feb-11 00:00     353.8466612   3.6168571
 1917-Feb-13 00:00     353.9527281   3.6115892
 1917-Feb-15 00:00     354.0604565   3.6065138
 1917-Feb-17 00:00     354.1697631   3.6016329
 1917-Feb-19 00:00     354.2805138   3.5969480
 1917-Feb-21 00:00     354.3925394   3.5924605
 1917-Feb-23 00:00     354.5057120   3.5881712
 1917-Feb-25 00:00     354.6199782   3.5840808
 1917-Feb-27 00:00     354.7352841   3.5801898
 1917-Mar-01 00:00     354.8515222   3.5764992
 1917-Mar-03 00:00     354.9685557   3.5730096
 1917-Mar-05 00:00     355.0862489   3.5697217
 1917-Mar-07 00:00     355.2044841   3.5666365
 1917-Mar-09 00:00     355.3231680   3.5637547
 1917-Mar-11 00:00     355.4422318   3.5610773
 1917-Mar-13 00:00     355.5616181   3.5586061
 1917-Mar-15 00:00     355.6812546   3.5563420
 1917-Mar-17 00:00     355.8010297   3.5542771
 1917-Mar-19 00:00     355.9208073   3.5523990
 1917-Mar-21 00:00     356.0404418   3.5507190
 1917-Mar-23 00:00     356.1598226   3.5492429
 1917-Mar-25 00:00     356.2788999   3.5479683
 1917-Mar-27 00:00     356.3976098   3.5468924
 1917-Mar-29 00:00     356.5158341   3.5460131
 1917-Mar-31 00:00     356.6334336   3.5453291
 1917-Apr-02 00:00     356.7502815   3.5448387
 1917-Apr-04 00:00     356.8662745   3.5445407
 1917-Apr-06 00:00     356.9813356   3.5444334
 1917-Apr-08 00:00     357.0954097   3.5445153
 1917-Apr-10 00:00     357.2084485   3.5447846
 1917-Apr-12 00:00     357.3203802   3.5452393
 1917-Apr-14 00:00     357.4310891   3.5458770
 1917-Apr-16 00:00     357.5404292   3.5466952
 1917-Apr-18 00:00     357.6482735   3.5476911
 1917-Apr-20 00:00     357.7545524   3.5488617
 1917-Apr-22 00:00     357.8592307   3.5502040
 1917-Apr-24 00:00     357.9622418   3.5517151
 1917-Apr-26 00:00     358.0634698   3.5533919
 1917-Apr-28 00:00     358.1627871   3.5552317
 1917-Apr-30 00:00     358.2600868   3.5572313
 1917-May-02 00:00     358.3552903   3.5593877
 1917-May-04 00:00     358.4483447   3.5616975
 1917-May-06 00:00     358.5392157   3.5641573
 1917-May-08 00:00     358.6278692   3.5667635
 1917-May-10 00:00     358.7142371   3.5695121
 1917-May-12 00:00     358.7982033   3.5723989
